[{"OBJECT_NAME":"STARLINK-34830","OBJECT_ID":"2025-192B","EPOCH":"2026-03-09T17:53:24.967968","MEAN_MOTION":15.31064913,"ECCENTRICITY":0.00031616,"INCLINATION":53.1594,"RA_OF_ASC_NODE":232.0306,"ARG_OF_PERICENTER":350.889,"MEAN_ANOMALY":9.2053,"EPHEMERIS_TYPE":0,"CLASSIFICATION_TYPE":"U","NORAD_CAT_ID":65405,"ELEMENT_SET_NO":999,"REV_AT_EPOCH":2940,"BSTAR":0.0048941642,"MEAN_MOTION_DOT":0.00151602,"MEAN_MOTION_DDOT":0},{"OBJECT_NAME":"KUIPER-00252","OBJECT_ID":"2025-301AA","EPOCH":"2026-03-09T22:00:01.999584","MEAN_MOTION":15.32961042,"ECCENTRICITY":0.00108625,"INCLINATION":51.8682,"RA_OF_ASC_NODE":64.6463,"ARG_OF_PERICENTER":55.9089,"MEAN_ANOMALY":330.8749,"EPHEMERIS_TYPE":0,"CLASSIFICATION_TYPE":"U","NORAD_CAT_ID":67157,"ELEMENT_SET_NO":999,"REV_AT_EPOCH":542,"BSTAR":-0.017504489,"MEAN_MOTION_DOT":-0.00529484,"MEAN_MOTION_DDOT":0}]
